{
  "norad_id": 63273,
  "name": "STARLINK-11621 [DTC]",
  "history": [
    {
      "epoch": "2026-03-28T18:17:12.948288Z",
      "apogee_km": 356.7805821650172,
      "perigee_km": 355.1144349759061,
      "latitude_deg": 4.164709533622499e-05,
      "longitude_deg": -103.62426019480502,
      "height_km": 356.0734474372392,
      "semi_major_axis_km": 6734.084508570461,
      "eccentricity": 0.00012371,
      "inclination_deg": 43.0003,
      "raan_deg": 356.8574,
      "arg_perigee_deg": 244.871,
      "mean_anomaly_deg": 115.203,
      "mean_motion_rev_day": 15.71031593
    },
    {
      "epoch": "2026-03-29T03:26:34.950912Z",
      "apogee_km": 357.4472691208257,
      "perigee_km": 355.3595615920658,
      "latitude_deg": -9.963893705984467e-06,
      "longitude_deg": 116.35927899921185,
      "height_km": 356.6222542123429,
      "semi_major_axis_km": 6734.540415356446,
      "eccentricity": 0.000155,
      "inclination_deg": 43.0008,
      "raan_deg": 354.5587,
      "arg_perigee_deg": 244.6837,
      "mean_anomaly_deg": 115.387,
      "mean_motion_rev_day": 15.70872065
    },
    {
      "epoch": "2026-03-29T03:26:34.951776Z",
      "apogee_km": 357.4472017754224,
      "perigee_km": 355.35962893747,
      "latitude_deg": -1.0674212848079017e-05,
      "longitude_deg": 116.35927463193242,
      "height_km": 356.62222541858046,
      "semi_major_axis_km": 6734.540415356446,
      "eccentricity": 0.00015499,
      "inclination_deg": 43.0008,
      "raan_deg": 354.5587,
      "arg_perigee_deg": 244.6837,
      "mean_anomaly_deg": 115.387,
      "mean_motion_rev_day": 15.70872065
    },
    {
      "epoch": "2026-03-30T09:57:47.735712Z",
      "apogee_km": 357.5505286701855,
      "perigee_km": 354.537117435485,
      "latitude_deg": 6.759390564924799e-05,
      "longitude_deg": 9.637271803419877,
      "height_km": 355.23516005235274,
      "semi_major_axis_km": 6734.180823052835,
      "eccentricity": 0.00022374,
      "inclination_deg": 42.9996,
      "raan_deg": 346.8933,
      "arg_perigee_deg": 292.7084,
      "mean_anomaly_deg": 67.3548,
      "mean_motion_rev_day": 15.70997889
    },
    {
      "epoch": "2026-03-30T17:35:35.145888Z",
      "apogee_km": 357.1386865720442,
      "perigee_km": 355.1748318259861,
      "latitude_deg": 6.807001910888665e-06,
      "longitude_deg": -107.04008128682064,
      "height_km": 356.09232250064474,
      "semi_major_axis_km": 6734.293759199015,
      "eccentricity": 0.00014581,
      "inclination_deg": 43.0,
      "raan_deg": 344.9769,
      "arg_perigee_deg": 260.4375,
      "mean_anomaly_deg": 99.6328,
      "mean_motion_rev_day": 15.7095837
    },
    {
      "epoch": "2026-03-31T02:44:56.587776Z",
      "apogee_km": 357.28581242145265,
      "perigee_km": 355.3705305266849,
      "latitude_deg": -1.0540112328496186e-05,
      "longitude_deg": 112.94453772964988,
      "height_km": 356.1738956293059,
      "semi_major_axis_km": 6734.4651714740685,
      "eccentricity": 0.0001422,
      "inclination_deg": 43.0,
      "raan_deg": 342.6769,
      "arg_perigee_deg": 265.6115,
      "mean_anomaly_deg": 94.459,
      "mean_motion_rev_day": 15.70898392
    },
    {
      "epoch": "2026-04-01T19:57:03.163968Z",
      "apogee_km": 357.6095998360761,
      "perigee_km": 355.1609275409992,
      "latitude_deg": -8.827234864351448e-06,
      "longitude_deg": -157.12335787326558,
      "height_km": 356.35885541623225,
      "semi_major_axis_km": 6734.522263688537,
      "eccentricity": 0.0001818,
      "inclination_deg": 42.9993,
      "raan_deg": 332.3285,
      "arg_perigee_deg": 260.5538,
      "mean_anomaly_deg": 99.5124,
      "mean_motion_rev_day": 15.70878416
    },
    {
      "epoch": "2026-04-02T15:47:19.158432Z",
      "apogee_km": 357.1019528218849,
      "perigee_km": 354.6211477559582,
      "latitude_deg": 3.650959401369752e-05,
      "longitude_deg": -100.48826097813587,
      "height_km": 356.8644805505684,
      "semi_major_axis_km": 6733.998550288921,
      "eccentricity": 0.0001842,
      "inclination_deg": 42.9974,
      "raan_deg": 327.3449,
      "arg_perigee_deg": 186.6459,
      "mean_anomaly_deg": 173.4385,
      "mean_motion_rev_day": 15.71061674
    },
    {
      "epoch": "2026-04-03T16:12:16.922304Z",
      "apogee_km": 357.3355025024939,
      "perigee_km": 354.96368676386373,
      "latitude_deg": -5.868680222506834e-06,
      "longitude_deg": -113.8624201428156,
      "height_km": 357.0153871211134,
      "semi_major_axis_km": 6734.2865946331785,
      "eccentricity": 0.0001761,
      "inclination_deg": 42.9983,
      "raan_deg": 321.2142,
      "arg_perigee_deg": 202.6624,
      "mean_anomaly_deg": 157.4166,
      "mean_motion_rev_day": 15.70960877
    },
    {
      "epoch": "2026-04-04T21:11:54.769056Z",
      "apogee_km": 357.3024341929231,
      "perigee_km": 355.50161845728417,
      "latitude_deg": 2.62483943732997e-05,
      "longitude_deg": 162.75738348360707,
      "height_km": 356.86505851931645,
      "semi_major_axis_km": 6734.539026325104,
      "eccentricity": 0.0001337,
      "inclination_deg": 43.0005,
      "raan_deg": 313.9324,
      "arg_perigee_deg": 140.308,
      "mean_anomaly_deg": 219.7886,
      "mean_motion_rev_day": 15.70872551
    },
    {
      "epoch": "2026-04-05T00:15:01.873440Z",
      "apogee_km": 357.9405159679418,
      "perigee_km": 354.713226191644,
      "latitude_deg": 4.033809867304626e-05,
      "longitude_deg": 116.08645668336695,
      "height_km": 356.182375951077,
      "semi_major_axis_km": 6734.463871079793,
      "eccentricity": 0.00023961,
      "inclination_deg": 43.0001,
      "raan_deg": 313.1664,
      "arg_perigee_deg": 267.0762,
      "mean_anomaly_deg": 92.9832,
      "mean_motion_rev_day": 15.70898847
    },
    {
      "epoch": "2026-04-05T15:30:38.349216Z",
      "apogee_km": 357.2772435628667,
      "perigee_km": 354.8219591280158,
      "latitude_deg": -6.584371324299718e-06,
      "longitude_deg": -117.27608824970447,
      "height_km": 356.56954795289596,
      "semi_major_axis_km": 6734.186601345441,
      "eccentricity": 0.0001823,
      "inclination_deg": 42.9991,
      "raan_deg": 309.3326,
      "arg_perigee_deg": 232.4796,
      "mean_anomaly_deg": 127.5906,
      "mean_motion_rev_day": 15.70995867
    },
    {
      "epoch": "2026-04-06T06:46:14.333376Z",
      "apogee_km": 357.01107010736996,
      "perigee_km": 355.71292808030375,
      "latitude_deg": -3.7893380042772776e-05,
      "longitude_deg": 9.365437280635097,
      "height_km": 355.4929388750643,
      "semi_major_axis_km": 6734.498999093837,
      "eccentricity": 9.638e-05,
      "inclination_deg": 43.0001,
      "raan_deg": 305.5008,
      "arg_perigee_deg": 350.6646,
      "mean_anomaly_deg": 9.4203,
      "mean_motion_rev_day": 15.70886556
    },
    {
      "epoch": "2026-04-07T14:48:59.592960Z",
      "apogee_km": 357.4509671574506,
      "perigee_km": 355.87367715620167,
      "latitude_deg": -2.456522945672104e-05,
      "longitude_deg": -120.68801227073008,
      "height_km": 356.2983530826575,
      "semi_major_axis_km": 6734.799322156826,
      "eccentricity": 0.0001171,
      "inclination_deg": 42.9994,
      "raan_deg": 297.452,
      "arg_perigee_deg": 279.9425,
      "mean_anomaly_deg": 80.131,
      "mean_motion_rev_day": 15.70781482
    },
    {
      "epoch": "2026-04-07T14:48:59.593824Z",
      "apogee_km": 357.4511692014303,
      "perigee_km": 355.87347511222197,
      "latitude_deg": -2.2241285737022055e-05,
      "longitude_deg": -120.68801340240843,
      "height_km": 356.2983182028942,
      "semi_major_axis_km": 6734.799322156826,
      "eccentricity": 0.00011713,
      "inclination_deg": 42.9994,
      "raan_deg": 297.452,
      "arg_perigee_deg": 279.9425,
      "mean_anomaly_deg": 80.131,
      "mean_motion_rev_day": 15.70781482
    },
    {
      "epoch": "2026-04-08T13:42:23.490144Z",
      "apogee_km": 357.4568067294649,
      "perigee_km": 355.17086473778363,
      "latitude_deg": 2.4417656731625333e-05,
      "longitude_deg": -110.72669224589472,
      "height_km": 356.1692797762602,
      "semi_major_axis_km": 6734.450835733624,
      "eccentricity": 0.00016972,
      "inclination_deg": 42.9993,
      "raan_deg": 291.7029,
      "arg_perigee_deg": 265.8427,
      "mean_anomaly_deg": 94.2247,
      "mean_motion_rev_day": 15.70903408
    },
    {
      "epoch": "2026-04-08T21:20:11.334912Z",
      "apogee_km": 357.6273070103334,
      "perigee_km": 355.12745527205425,
      "latitude_deg": -1.3906121055775295e-05,
      "longitude_deg": 132.59516151084966,
      "height_km": 356.21259677011545,
      "semi_major_axis_km": 6734.514381141194,
      "eccentricity": 0.0001856,
      "inclination_deg": 43.0002,
      "raan_deg": 289.7875,
      "arg_perigee_deg": 267.1387,
      "mean_anomaly_deg": 92.9268,
      "mean_motion_rev_day": 15.70881174
    },
    {
      "epoch": "2026-04-10T05:22:58.349280Z",
      "apogee_km": 356.862947193541,
      "perigee_km": 354.3155785482968,
      "latitude_deg": 3.981343452528979e-05,
      "longitude_deg": 2.5341232210315923,
      "height_km": 354.27232994787477,
      "semi_major_axis_km": 6733.726262870919,
      "eccentricity": 0.00018915,
      "inclination_deg": 42.9978,
      "raan_deg": 281.7384,
      "arg_perigee_deg": 31.4232,
      "mean_anomaly_deg": 328.6749,
      "mean_motion_rev_day": 15.71156967
    },
    {
      "epoch": "2026-04-11T19:31:56.207136Z",
      "apogee_km": 358.4994291440544,
      "perigee_km": 353.8850667433635,
      "latitude_deg": 1.8004961386230484e-05,
      "longitude_deg": 139.14318205446602,
      "height_km": 356.60926386980105,
      "semi_major_axis_km": 6734.329247943709,
      "eccentricity": 0.0003426,
      "inclination_deg": 43.0013,
      "raan_deg": 272.1553,
      "arg_perigee_deg": 253.8126,
      "mean_anomaly_deg": 106.2365,
      "mean_motion_rev_day": 15.70945952
    }
  ]
}